{"type": "Feature", "geometry": {"type": "Point", "coordinates": ["123.3", "-76.12"]}, "properties": {"temperature": "-34", "pressure": "996", "localTime": "Thu Jan 11 2024 09:29:49 GMT-0500 (hora est\u00e1ndar de Colombia)", "julianTime": "1704983389", "utcTime": "9:29:58 AM", "altitude": "470.18", "elevation": "+7.4", "TLE": {"Norad_Id": 56205, "International_Classification": "Unclassified", "International_Designation": "23054AD", "Epoch_Time_(ISO)": "2024-01-11T03:27:55Z", "First_Derivative_Mean_Motion": 0.00015867, "Second_Derivative_Mean_Motion": 0.0, "Inclination": 97.3868, "Right_Ascension_of_the_Ascending_Node": 269.1825, "Eccentricity": 0.0013559, "Argument_of_Perigee": 3.2456, "Mean_Anomaly": 356.887, "Mean_Motion": 15.29583864, "Revolution_Number_at_Epoch": 4191}}}